{
  "norad_id": 65473,
  "name": "STARLINK-34762",
  "history": [
    {
      "epoch": "2026-03-28T12:05:06.754560",
      "apogee_km": 475.98167941908196,
      "perigee_km": 474.43186425851763,
      "latitude_deg": 8.623664280490754,
      "longitude_deg": 55.64083839999512,
      "semi_major_axis_km": 6853.3437718387995,
      "eccentricity": 0.00011307,
      "inclination_deg": 53.1591,
      "raan_deg": 170.829,
      "arg_perigee_deg": 88.7761,
      "mean_anomaly_deg": 271.337,
      "mean_motion_rev_day": 15.30202779
    }
  ]
}